id,iso_code,ascii_name,utf8_name,description,earliestTimeDepthBound,latestTimeDepthBound,progress,author,foss_stat,glottocode,level0,level1,level2,level3,low_stat,representative,reviewer,rfcWebPath1,rfcWebPath2,soundcompcode,variety,sortRankInClade,sndCompLevel0,sndCompLevel1,sndCompLevel2,sndCompLevel3,entryTimeframe,originalAsciiName,historical,notInExport,distribution,uniformLower,uniformUpper,latitude,longitude,exampleLanguage,fragmentary,nativeScriptIsRtl,loc_justification
3,aln,AlbanianGheg,Albanian: Gheg,,,,5,Ulrich Geupel,False,gheg1238,5,0,0,0,False,False,,,,,,20,9,1,0,0,,Albanian_Gheg,False,False,_,,,42.6670000000,21.1670000000,False,False,False,"Set on Pristina, the capital of Kosovo, as a reference point for the variety targeted, namely north-eastern Gheg as spoken roughly in Kosovo."
7,hyw,ArmenianWestern,Armenian: Western,,,,5,Martin Macak,False,homs1234,4,0,0,0,False,False,,,,,"Western Armenian literary language, ultimately closely related to the dialect of the Erzerum area.",30,9,3,0,0,,Armenian_Western,False,False,_,,,39.9100000000,41.2800000000,False,False,False,"Set in the town of Erzurum, formerly a major dialect area of Western Armenian in Asia Minor, and ultimately closely related to the Western Armenian literary language effectively based on the dialect of Constantinople (Istanbul)."
8,hye,ArmenianEastern,Armenian: Eastern,,,,5,Martin Macak,False,nucl1235,4,0,0,0,False,False,,,,,Yerevan variety.,20,9,3,0,0,,Armenian_Eastern,False,False,_,,,40.1810000000,44.5140000000,True,False,False,"Set in Yerevan, the capital of Armenia, the dialect of which historically forms the basis of colloquial Eastern Armenian and is the most widespread of the Armenian dialects today."
10,ben,Bengali,Bengali,,,,5,Patrycja Markus,False,beng1280,6,1,0,0,False,False,,http://dsalsrv02.uchicago.edu/cgi-bin/app/biswas-bengali_query.py?searchhws=yes&qs=,,,,28,8,0,0,0,,Bengali,False,False,_,,,22.5700000000,88.3600000000,False,False,False,"Set on Kolkata (Calcutta), capital of the Indian state of West Bengal, and a cultural centre where Bengali is the dominant language."
15,bul,Bulgarian,Bulgarian,Standard Bulgarian,,,5,Lechosław Jocz,False,bulg1262,7,2,1,0,False,False,,https://rechnik.chitanka.info/w/,,,Standard,20,3,3,0,0,,Bulgarian,False,False,_,,,42.7000000000,23.3300000000,False,False,False,"Set on Sofia, as the capital of Bulgaria"
16,bel,Belarusian,Belarusian,Standard Belarusian,,,5,Lechosław Jocz,False,bela1254,7,2,3,0,False,False,,http://www.slounik.org/search?search=,,,Standard,55,3,1,0,0,,Belarusian,False,False,_,,,53.9000000000,27.5700000000,False,False,False,"Set on Minsk, as the capital of Belarus"
17,cat,Catalan,Catalan,,,,5,Kim Schulte,False,stan1289,9,1,1,0,False,False,,,,,Standard Catalan.,75,2,1,0,0,,Catalan,False,False,_,,,41.8300000000,1.5400000000,False,False,False,"Set roughly on the geographical centre of Catalonia, given that standard Catalan (the variety represented in IE-CoR) is purposely based not on a single dialect."
18,ces,Czech,Czech,Standard Czech,,,5,Lechosław Jocz,False,czec1258,7,2,2,0,False,False,,http://ssjc.ujc.cas.cz/search.php?hledej=Hledat&hsubstr=no&heslo=,,,Standard,85,3,2,0,0,,Czech,False,False,_,,,50.0900000000,14.4200000000,False,False,False,"Set on Prague, as the capital of the Czech Republic"
20,dan,Danish,Danish,,,,5,Tonya Dewey,False,dani1285,8,2,1,0,False,False,,http://ordnet.dk/ddo/ordbog?query=,,,"Standard Danish, as spoken around Copenhagen.",70,1,2,0,0,,Danish,False,False,_,,,55.6800000000,12.5700000000,False,False,False,"Set in Copenhagen, generally considered the region closest to the perceived 'standard' form of Danish."
21,nld,Dutch,Dutch,,,,5,Annemarie Verkerk,False,dutc1256,8,2,2,0,False,False,,http://www.etymologiebank.nl/trefwoord/,,,,40,1,1,0,0,,Dutch,False,False,_,,,52.1450000000,4.7300000000,False,False,False,"Set on the approximage geographical centre of the Randstad, intermediate between the four main cities of Holland (Amsterdam. Rotterdam, The Hague and Utrecht), the region whose dialect was most influential in the development of modern standard Dutch."
22,eng,English,English,,,,5,Martin Findell & Paul Heggarty,False,stan1293,8,2,2,1,False,False,,http://www.oed.com/view/Entry/,,,"British English, in majority usage in England.",70,1,1,0,0,,English,False,False,_,,,51.7500000000,-1.2600000000,False,False,False,"Set on Oxford, popularly considered a prestige location of the perceived standard variety of English in (southern) England, and where lexical usage corresponds to the lexeme determinations in the IE-CoR data for English."
23,fao,Faroese,Faroese,,,,5,Tonya Dewey,False,faro1244,8,2,1,0,False,False,,http://sleipnir.fo/obg/fob/fob.php?button_leita=&action=1&pageno=0&leitord=,,,,25,1,2,0,0,,Faroese,False,False,_,,,62.0120000000,-6.7680000000,False,False,False,"Set on Tórshavn, capital of the Faroe Islands, and a roughly central location among the islands and their corresponding dialects."
24,vls,Flemish,Flemish,,,,5,Tonya Dewey,False,vlaa1240,8,2,2,0,False,False,,,,,,44,1,1,0,0,,Flemish,False,False,_,,,51.1010000000,4.1760000000,False,False,False,"Set at the approximate mid-point of the Flemish-speaking regions of Belgium, on the border between the two more central dialects, East Flanders and (South) Brabant."
25,fra,French,French,,,,5,Paul Heggarty,False,stan1290,9,1,1,0,False,False,,http://www.cnrtl.fr/etymologie/,,,"Standard, with lexical usage of north-central France.",63,2,2,0,0,,French,False,False,_,,,47.2400000000,0.6900000000,True,False,False,"Set in Tours, traditionally and still widely considered among French-speakers as a region whose (pronunciation) is close(st) to the perceived 'standard' language.  More relevant for IE-CoR is its location within north-central France, where lexical usage generally corresponds most closely to the entries in this IE-CoR data for French."
26,frs,Frisian,Frisian,,,,5,Paul Versloot,False,west2354,8,2,2,0,False,False,,,,,"West Frisian, ‘common dialect’.",55,1,1,0,0,,Frisian,False,False,_,,,53.1300000000,5.7800000000,False,False,False,"Set roughly at the transition between the main surviving dialects, Klaaifrysk and Wâldfrysk."
27,deu,German,German,"'Hochdeutsch' standard German, particularly as spoken in (north-central) Germany.",,,5,Cassandra Freiberg,False,stan1295,8,2,2,0,False,False,,,,,"'Hochdeutsch' standard, in (north-central) Germany.",20,1,1,0,0,,German,False,False,_,,,52.3700000000,9.7200000000,False,False,False,"Set on Hannover.  Although without particular linguistic merit, Hannover is at least widely considered among German-speakers as a region whose (pronunciation) is close(st) to the perceived 'standard' language.  More relevant for IE-CoR is simply that Hannover is in a fairly central location within northern Germany, where lexical usage generally corresponds most closely to the lexeme determinations in the IE-CoR data for German.o"
32,ell,Greek,Greek: Modern Std,"Contemporary Standard Modern Greek.  Transliterations follow ISO 843 TL. For phonological interpretation cf. Holton, Mackridge, and Philippaki-Warburton (2012)",,,5,Matthew Scarborough,False,mode1248,3,2,0,0,False,False,,http://www.greek-language.gr/greekLang/modern_greek/tools/lexica/triantafyllides/search.html?lq=,,,,40,5,0,0,0,,Greek,False,False,_,,,37.9800000000,23.7300000000,False,False,False,"Athens, the capital city of the present day Hellenic Republic."
35,hin,Hindi,Hindi,"Hindi:  the official language of India, and a lingua franca for almost all of nothern India.",,,5,Krzysztof Stroński,False,hind1269,6,1,0,0,False,False,,,,,,45,8,0,0,0,,Hindi,False,False,_,,,28.7040000000,77.1020000000,True,False,False,"Set on Delhi, India"
36,isl,Icelandic,Icelandic,,,,5,Tonya Dewey,False,icel1247,8,2,1,0,False,False,,,,,,20,1,2,0,0,,Icelandic,False,False,_,,,64.1390000000,-21.9510000000,False,False,False,"Set in Reykjavík (on the Árni Magnússon Institute), as the capital of Iceland, given the general perception that dialectal variation by geography is in any case minimal."
38,gle,GaelicIrish,Gaelic: Irish,Modern standard as interpreted by a Galway speaker,,,5,Cormac Anderson,False,iris1253,10,3,0,0,False,False,,http://www.teanglann.ie/ga/fgb/,,,Modern standard,40,4,1,0,0,,Irish,False,False,_,,,53.2100000000,-8.5000000000,False,False,False,Set at south Galway provenance of primary coder
39,ita,Italian,Italian,,,,5,Cormac Anderson and Matilde Serangeli,False,ital1282,9,1,1,0,False,False,,,,,Standard (originally based on the Florence dialect of Dante),37,2,4,0,0,,Italian,False,False,_,,,43.7700000000,11.2500000000,True,False,False,"Set in Florence, the dialect of which historically formed the basis of standard ‘Italian’."
40,kas,Kashmiri,Kashmiri,"This is essentially a northern variety of Kashmiri of the Kashmir valley, with respect to more divergent regional forms such as Poguli and Kashtawari spoken outside of the valley. However, this particular sub-variety is the one spoken on the Pakistani-administered side of the Line of Control.",,,5,Khawaja Rehman,False,kash1277,6,1,0,0,False,False,,,,,Kamraaz variety,77,8,7,0,0,,Kashmiri,False,False,_,,,34.7930000000,74.1930000000,False,False,False,"Set on Sharda (Neelum valley, Azad Jammu & Kashmir), the home of the main language consultant for these IE-CoR data."
42,lld,Ladin,Ladin,,,,5,Paul Videsott,False,ladi1250,9,1,1,0,False,False,,,,,,43,2,3,0,0,,Ladin,False,False,_,,,46.5100000000,11.7700000000,False,False,False,"Set on the border between Trentino and South Tyrol, a geographically central point of the area in which Ladin is spoken."
44,lav,Latvian,Latvian,,,,5,Tijmen Pronk,False,latv1249,7,1,1,0,False,False,,http://www.tezaurs.lv/#/sv/,,,Standard Latvian,10,3,8,0,0,,Latvian,False,False,_,,,57.4700000000,25.4900000000,True,False,False,"Standard Latvian is based on the Vidzeme subdialect of the Middle dialect. The coordinates are those of the village of Mūrmuiža near Valmiera, Latvia, close to where Jānis Endzelīns, one of the founders of the Latvian norm, was born."
46,lit,Lithuanian,Lithuanian,,,,5,Tijmen Pronk,False,lith1251,7,1,1,0,False,True,,http://etimologija.baltnexus.lt/?w=,,,Standard Lithuanian,20,3,8,0,0,,Lithuanian,False,False,_,,,54.8400000000,23.1700000000,False,False,False,"Standard Lithuanian is based on the West Aukštaitian dialect. The coordinates are those of the village of Rygiškiai, Lithuania, where Jonas Jablonskis, one of the founders of the Lithuanian norm, grew up."
47,dsb,SorbianLower,Sorbian: Lower,West Slavic minority language spoken in eastern Germany,,,5,Lechosław Jocz,False,lowe1385,7,2,2,0,False,False,,http://www.dolnoserbski.de/ndw/pokaz/Starosta/,,,Standard,95,3,2,0,0,,Sorbian_Lower,False,False,_,,,51.7700000000,14.3300000000,False,False,False,"Set on Chóśebuz (Cottbus), the historical capital of Lower Lusatia"
48,hsb,SorbianUpper,Sorbian: Upper,West Slavic minority language spoken in eastern Germany,,,5,Lechosław Jocz,False,uppe1395,7,2,2,0,False,False,,,,,Standard,90,3,2,0,0,,Sorbian_Upper,False,False,_,,,51.1800000000,14.4200000000,False,False,False,"Set on Budyšin (Bautzen), the historical capital of Upper Lusatia"
50,mar,Marathi,Marathi,"Marathi:  the official language of  the Indian state of Maharashtra, and one of the 22 scheduled languages of India. The data for this work was based on the standard Marathi spoken in Pune.",,,5,Mandar Purandare and Krzysztof Stroński,False,mara1378,6,1,0,0,False,False,,,,,Pune variety,75,8,0,0,0,,Marathi,False,False,_,,,18.5200000000,73.8560000000,False,False,False,"Set on Pune, India."
51,nep,Nepali,Nepali,"Nepali:  the official language of Nepal, as well as one of the 22 recognized languages of India, and an official language of the Indian state of Sikkim",,,5,Krzysztof Stroński,False,east1436,6,1,0,0,False,False,,,,,,55,8,0,0,0,,Nepali,False,False,_,,,27.7170000000,85.3230000000,False,False,False,"Set at Kathmandu, the capital of the Federal Democratic Republic of Nepal and the major educational, cultural and literary centre for Nepali."
54,pes,PersianTehran,Persian: Tehran,,,,5,Arash Zeini,False,west2369,6,3,0,0,False,False,,http://parsi.wiki/dehkhodasearchresult-fa.html?searchtype=0&word=,,,,67,7,0,0,0,,Persian,False,False,_,,,35.7000000000,51.4000000000,False,False,False,"City of Tehran, capital of modern Iran"
55,pol,Polish,Polish,Standard Polish,,,5,Lechosław Jocz,False,poli1260,7,2,2,0,False,False,,http://sjp.pwn.pl/szukaj/,,,Standard,71,3,2,0,0,,Polish,False,False,_,,,52.2300000000,21.0100000000,True,False,False,"Set on Warsaw, as the current capital of Poland"
56,por,Portuguese,Portuguese,,,,5,Kim Schulte,False,port1283,9,1,1,0,False,False,,,,,Standard European Portuguese.,94,2,1,0,0,,Portuguese,False,False,_,,,40.2000000000,-8.4000000000,False,False,False,"Set in Coimbra, in the area between Figueria da Foz and Guarda, popularly considered to be where “the best” Portuguese is spoken.  In particular, Coimbra, as home to the oldest and most venerable university in Portugal, plays an important role in establishing what is accepted in the standard language. "
58,nob,NorwegianBokmal,Norwegian: Bokmål,,,,5,Steve Pepper,False,norw1259,8,2,1,0,False,False,,,,,,30,1,2,0,0,,Norwegian_Riksmal,False,False,_,,,59.9140000000,10.7180000000,False,False,False,"Set on Oslo, since Bokmål was originally based on the ‘Dano-Norwegian’ spoken by the ‘urban elite’, especially in Oslo."
59,ron,Romanian,Romanian,,,,5,Kim Schulte,False,roma1327,9,1,1,0,False,False,,https://dexonline.ro/definitie/,,,,23,2,5,0,0,,Romanian,False,False,_,,,45.4500000000,25.4600000000,False,False,False,"Set in the Carpathians (the Bucegi mountains south of Brașov), as the transition between southern and Transylvanian dialects of Romanian. "
60,rus,Russian,Russian,Standard Russian,,,5,Lechosław Jocz,False,russ1263,7,2,3,0,False,False,,http://gramota.ru/slovari/dic/?all=x&word=,,,Standard,50,3,1,0,0,,Russian,False,False,_,,,55.7500000000,37.6200000000,True,False,False,"Set on Moscow, as the capital of Russia"
62,src,SardinianLogudoro,Sardinian: Logudoro,Logudorese dialect,,,5,Simone Loi,False,nuor1238,9,1,1,0,False,False,,,,,Logudorese dialect,57,2,4,0,0,,Sardinian_Logudoro,False,False,_,,,40.5000000000,8.8500000000,False,False,False,Set roughly in the geographical centre of the Logudoro-speaking area.
63,src,SardinianNuoro,Sardinian: Nuoro,Nuorese (Bitti) dialect (a conservative variety of Logudorese),,,5,Simone Loi,False,logu1236,9,1,1,0,False,False,,,,,Nuorese (Bitti) dialect (a conservative variety of Logudorese),55,2,4,0,0,,Sardinian_Nuoro,False,False,_,,,40.4750000000,9.3820000000,False,False,False,"Set on the town of Bitti (Bitzi), the dialect used for the IE-CoR data for Nuoro Sardinian."
65,sin,Sinhalese,Sinhalese,,,,5,Roland Pooth,False,sinh1246,6,1,0,0,False,False,,http://dsalsrv02.uchicago.edu/cgi-bin/philologic/search3advanced?dbname=carter&matchtype=exact&query=,,,,20,8,0,0,0,,Sinhalese,False,False,_,,,6.9300000000,79.8600000000,False,False,False,"Set on Colombo, the capital of Sri Lanka and the cultural centre of the country, where standard Sinhala is a primary language."
66,slk,Slovak,Slovak,Standard Slovak,,,5,Lechosław Jocz,False,slov1269,7,2,2,0,False,False,,http://slovnik.azet.sk/pravopis/?q=,,,Standard,80,3,2,0,0,,Slovak,False,False,_,,,48.1500000000,17.1100000000,False,False,False,"Set on Bratislava, as the capital of Slovakia"
68,spa,Spanish,Spanish,,,,5,Kim Schulte,False,stan1288,9,1,1,0,False,False,,http://dle.rae.es/?,,,Standard Castilian Spanish.,84,2,1,0,0,,Spanish,False,False,_,,,41.6500000000,-4.7200000000,True,False,False,"Set on Valladolid, at the centre of the region popularly considered to speak the ‘purest’ Spanish, or the variety closest to the rules of the Real Academia Española. This area roughly coincides with the provinces of Salamanca, Valladolid, Palencia and Burgos."
69,swe,Swedish,Swedish,,,,5,Harald Hammarström,False,swed1254,8,2,1,0,False,False,,http://www.saob.se/artikel/?seek=,,,Standard Swedish,54,1,2,0,0,,Swedish,False,False,_,,,59.3290000000,18.0690000000,True,False,False,"Set on Stockholm, a high-prestige dialect on which standard Swedish is heavily based."
73,ukr,Ukrainian,Ukrainian,Standard Ukrainian,,,5,Lechosław Jocz,False,ukra1253,7,2,3,0,False,False,,http://sum.in.ua/s/,,,Standard,60,3,1,0,0,,Ukrainian,False,False,_,,,50.4500000000,30.5200000000,False,False,False,"Set on Kiev, given the general perception of the Kiev region as one where the 'standard' form of Ukrainian is spoken."
75,wbl,Wakhi,Wakhi,,,,1,John Mock,False,wakh1245,6,3,0,0,False,False,,,,,,29,7,0,0,0,,Wakhi,False,True,_,,,37.1800000000,73.9800000000,False,False,False,
76,wln,Walloon,Walloon,,,,5,Esther Baiwir,False,wall1255,9,1,1,0,False,False,,http://gallica.bnf.fr/ark:/12148/bpt6k50663j/,,,Liège Walloon.,65,2,2,0,0,,Walloon,False,False,_,,,50.6400000000,5.5700000000,False,False,False,"Set in Liège, the variety coded here."
80,hit,Hittite,Hittite,,,,5,Matilde Serangeli,False,hitt1242,1,0,0,0,False,True,,,,,,10,6,0,0,0,,Hittite,True,False,N,,,40.0100000000,34.6200000000,False,False,False,Site of Boğhazkale (Boğhazköy) identified with the Hittite capital Ḫattuša.
81,xto,TocharianA,Tocharian A,"Tocharian A texts come from the Šorčuq and Turfan areas and do not date before the 7th c. CE. There is continuing debate as to whether the language was still spoken at this time, but there is no evidence that Tocharian A speakers ever lived to the west of Šorčuq. The Turfan texts exhibit a few minor linguistic peculiarities, suggesting that there were once actual living Tocharian A speech communities in both places.",,,5,Ronald Kim,False,tokh1242,2,0,0,0,False,False,,,,,"Tocharian A, the relatively uniform language attested in texts of almost exclusively religious content, from Šorčuq and Turfan.",10,9,5,0,0,,Tocharian_A,True,False,N,,,42.4840000000,87.8700000000,False,False,False,Set at a point geographically roughly intermediate between the two main areas where Tocharian A texts have been found: Šorčuq and Turfan.  
82,txb,TocharianB,Tocharian B,"Archaic/early Tocharian B of the Kuča region, attested in manuscripts from the 5th and 6th centuries CE.  From Kuča, the language spread to Šorčuq c. 600 CE, and then eastwards to Turfan and (marginally) westwards to Murtuq in the late 7th century CE.  The archaic/early form of Tocharian B, as targeted in the IE-CoR data, is from Kuča, while what is sometimes termed “classical” Tocharian B, represented by the majority of the surviving literary manuscripts, comes from Kuča and sites immediately to its east (Šorčuq, Qarašahr, etc.).",,,5,Ronald Kim,False,tokh1243,2,0,0,0,False,True,,,,,Archaic/early Tocharian B of the Kuča region.,20,9,5,0,0,,Tocharian_B,True,False,N,,,41.7180000000,82.9620000000,False,False,False,"Set on Kuča, since manuscript evidence indicates that the original location of Tocharian B speakers was Kuča and its environs (including Qumtura and Subashi) — see especially Peyrot (2008).  "
92,mkd,Macedonian,Macedonian,Standard Macedonian,,,5,Lechosław Jocz,False,mace1250,7,2,1,0,False,False,,http://makedonski.info/search/#,,,Standard,25,3,3,0,0,,Macedonian,False,False,_,,,42.0000000000,21.4300000000,False,False,False,"Set on Skopje, as the capital of Macedonia "
95,hrv,SerboCroatian,Serbo-Croat,"Standard Serbo-Croat, with transcriptions in Ijekavian pronunciation",,,5,Lechosław Jocz,False,croa1245,7,2,1,0,False,False,,http://hjp.znanje.hr/index.php?show=search_by_id&id=,,,Standard,30,3,3,0,0,,Serbo-Croatian,False,False,_,,,44.8200000000,20.4700000000,False,False,False,"Set on Belgrade, as the capital  of Serbia"
97,slv,Slovenian,Slovenian,Standard Slovenian,,,5,Lechosław Jocz,False,slov1268,7,2,1,0,False,False,,http://www.fran.si/193/marko-snoj-slovenski-etimoloski-slovar/,,,Standard,40,3,3,0,0,,Slovenian,False,False,_,,,46.0600000000,14.5100000000,False,False,False,"Set on Ljubljana, as the capital of Slovenia"
99,ang,OldEnglishLegacy,Old_English_Legacy,Late West Saxon Old English,,,5,Martin Findell,False,olde1238,8,2,2,1,False,False,,,,,,61,1,1,0,0,,Old_English,True,True,N,,,51.0600000000,-1.3300000000,False,False,False,
100,chu,OldChurchSlavonic,Old Church Slavonic,Old Church Slavonic as documented in the texts of the strict canon (manuscripts from the 10th and 11th centuries AD),,,5,Lechosław Jocz,False,chur1257,7,2,1,0,False,True,,,,,Old Church Slavonic sensu stricto,10,3,3,0,0,,Old_Church_Slavonic,True,False,N,,,40.6500000000,22.9000000000,False,False,False,"Set on Thessaloniki (Greece), the hometown of Saints Cyril and Methodius, the creators of Old Church Slavonic as a written language."
101,cor,MiddleCornishOld,ZLegacy_Middle Cornish OLD,,1000,400,1,Nicholas Williams,False,corn1251,10,2,0,0,False,False,,,,,,35,4,2,0,0,,Middle_Cornish,True,True,N,,,,,False,False,False,
105,san,VedicEarly,Vedic: Early,,,,5,Roland Pooth,False,sans1269,6,1,0,0,False,False,,http://www.sanskrit-lexicon.uni-koeln.de/scans/MWScan/2014/web/webtc/servepdf.php?page=,,,,5,8,0,0,0,,Vedic_Sanskrit,True,False,O,,,34.0400000000,72.3600000000,False,False,False,"Set at Śalātura, the birthplace of Pāṇini."
107,got,GothicLegacy,Gothic_Legacy,,,,5,Tonya Dewey,False,goth1244,8,1,0,0,False,False,,http://www.wulfila.be/lib/streitberg/1910/html/B,,,,10,1,3,0,0,,Gothic,True,True,N,,,44.1000000000,21.7000000000,False,False,False,
108,prg,OldPrussian,Old Prussian,,,,5,Tijmen Pronk,False,prus1238,7,1,2,0,False,False,,,,,"Data were taken from the following Old Prussian sources: The three cathechisms, the Elbing vocabulary and Grunau's vocabulary. These sources represent several slightly different dialects of the Old Prussian language.",0,3,8,0,0,,Old_Prussian,True,False,N,,,54.9200000000,20.4800000000,False,False,False,"The coordinates are those of Moxovoe, Kaliningrad Oblast', Russia. It is an archeological site located on the Sambia peninsula, which was one of the last areas where Old Prussian was spoken."
109,non,OldNorse,Old Norse,,,,5,Tonya Dewey,True,oldn1244,8,2,1,0,False,True,,http://web.ff.cuni.cz/cgi-bin/uaa_slovnik/gmc_search_v3?cmd=formquery2&query=,,,,10,1,2,0,0,,Old_Norse,True,True,N,,,65.3300000000,-19.5300000000,False,False,False,
110,grc,AncientGreek,Greek: Ancient,"Classical Attic. For phonological description and phonetic reconstruction cf. Allen (1987).  Verb forms listed in 1.sg. present indicative unless otherwise specified.  Nouns listed in nominative singular unless otherwise specified.  Transliterations follow the ALA-LC system, with the addition of accentual diacritics.",,,5,Matthew Scarborough,False,anci1242,3,1,0,0,False,True,,http://www.perseus.tufts.edu/hopper/text?doc=Perseus:text:1999.04.0057:entry=,,,,20,5,0,0,0,,Ancient_Greek,True,False,N,,,37.9600000000,23.7300000000,False,False,False,"Site of Classical Athens, the area where the Attic dialect of Ancient Greek originated."
111,mai,Maithili,Maithili,,,,5,Ganesh Gupta,False,mait1250,6,1,0,0,False,False,,,,,,36,8,0,0,0,,Maithili,False,False,_,,,26.3500000000,86.0800000000,False,False,False,"Set on Madhubani, the cultural centre of the Mithila region, the home region of several renowned Maithili poets, among them Vidyapati Thakur, the ‘father of Maithili literature’."
112,lat,Latin,Latin,Classical Latin (Literary Standard of the Roman Late Republic/Early Imperial Period). Verb forms given in the present infinitive otherwise specified.  Nouns given in nominative singular unless otherwise specified.,,,5,Matthew Scarborough,False,lati1261,9,1,0,0,False,True,,http://www.perseus.tufts.edu/hopper/text?doc=Perseus%3Atext%3A1999.04.0059%3Aentry%3D,,,Classical Latin,10,2,0,0,0,,Latin,True,False,N,,,41.8900000000,12.4800000000,False,False,False,Set in Rome.  
114,,ProtoIndoEuropean,Proto-Indo-European,,,,3,,False,indo1319,0,0,0,0,False,True,,,,,,0,0,0,0,0,,Proto-Indo-European,False,True,_,,,,,False,False,False,
115,gla,GaelicScottish,Gaelic: Scottish,,,,5,Peadar O'Muircheartaigh,False,scot1245,10,3,0,0,False,False,,,,,South Uist,20,4,1,0,0,,Scottish_Gaelic,False,False,_,,,57.2700000000,-7.3200000000,False,False,False,"Set at the geographical midpoint of the island of South Uist, the variety targeted here. "
118,kmr,Kurmanji,Kurdish N.: Bahdini,Northern Kurdish (Kurmanji),,,5,Baydaa Mustafa and Geoffrey Haig,False,nort2641,6,3,0,0,False,False,,,,,,81,7,0,0,0,,Kurdish,False,False,_,,,36.8700000000,42.9500000000,False,False,False,"Set at Duhok, Iraq, main urban location in which this variety is spoken"
119,urd,Urdu,Urdu,"Urdu:  the official language of Pakistan, as well as one of the 22 recognized languages of India.",,,5,Krzysztof Stroński,False,urdu1245,6,1,0,0,False,False,,,,,Pakistani Urdu,47,8,0,0,0,,Urdu,False,False,_,,,33.6840000000,73.0470000000,False,False,False,"Set on Islamabad, Pakistan"
120,ltz,Luxembourgish,Luxembourgish,,,,5,Sam Mersch,False,luxe1241,8,2,2,0,False,False,,,,,,27,1,1,0,0,,Luxembourgish,False,False,_,,,49.7500000000,6.1200000000,False,False,False,Set on the approximate geographical mid-point of (the country of) Luxembourg.
122,fur,Friulian,Friulian,,,,5,Giorgio Cadorini,False,friu1240,9,1,1,0,False,False,,http://claap.org/definizion/?diz=fur-it&leme=,,,,41,2,3,0,0,,Friulian,False,False,_,,,46.0600000000,13.2300000000,False,False,False,"Set in Udine, cultural and political centre of the Friulian language"
124,oss,OsseticIron,Ossetic: Iron,"Standard Iron as spoken by the majority of speakers in North Ossetia (specifically, with respect to the sound changes /c/ → /s/, /dz/ → /z/, /s/ → /š/, /z/ → /ž/).",,,5,Oleg Belyaev,False,iron1242,6,3,0,0,False,False,,,,,Standard Iron as spoken by the majority of speakers in North Ossetia ,98,7,0,0,0,,Ossetic_Iron,False,False,_,,,43.0200000000,44.6500000000,False,False,False,"Vladikavkaz, the capital of North Ossetia, and roughly the geographical centre of the Iron-speaking area (albeit slightly to the east)."
125,oss,OsseticDigor,Ossetic: Digor,"The dialect characteristic of the Iræf district, with non-phonemic palatalization of affricates and sibilants before front vowels (cf. /cʼew/ [čʼew] 'bird'). I still chose Digora (Digorskij district) as the location because the data are supposed to represent the whole of the Digor dialect. Also this variety appears to be currently more widespread than the one without palatalization.",,,5,Oleg Belyaev,False,digo1242,6,3,0,0,False,False,,,,,The dialect characteristic of the Iræf district.,99,7,0,0,0,,Ossetic_Digor,False,False,_,,,43.1600000000,44.1600000000,False,False,False,"Digora, the largest Digor-speaking town of Ossetia and also roughly the centre of the modern Digor-speaking area. (The original Digor area was more in the highlands.)"
126,goh,OldHighGerman_Legacy,Old_High_German_Legacy,9th century East Franconian,,,5,Tonya Dewey,False,oldh1241,8,2,2,0,False,False,,,,,,16,1,1,0,0,,Old_High_German,True,True,N,,,50.0000000000,10.0000000000,False,False,False,
127,sga,OldIrish,Old Irish,Primarily based on Old Irish glosses,,,5,Cormac Anderson,False,oldi1245,10,3,0,0,False,True,,http://dil.ie/,,,,10,4,1,0,0,,Old_Irish,True,False,N,,,54.3500000000,-6.6600000000,False,False,False,"Set at Armagh, primary site of Irish Christianity and centre for Old Irish"
128,ave,AvestanYounger,Avestan: Younger,,,,5,Thomas Jügel,False,aves1237,6,3,0,0,False,True,,,,,,10,7,0,0,0,,Avestan,True,False,O,,,31.5400000000,53.6300000000,False,False,False,"It is uncertain where Avestan was originally spoken. For further discussion, cf. Humbach, Helmut, Josef Elfenbein & Prods Oktor Skjærvø. 1991. The Gāthās of Zarathushtra and other Old Avestan Texts. Part I: Introduction – Text and Translation Heidelberg: Carl Winter Universitätsverlag"
129,xcl,ClassicalArmenian,Armenian: Classical,,,,5,Martin Macak,False,clas1249,4,0,0,0,False,True,,,,,,10,9,3,0,0,,Classical_Armenian,True,False,N,,,40.1730000000,44.2930000000,False,False,False,"Set in present day Ejmiatsin, formerly also known as Vagharshapat, which was the capital of the Kingdom of Greater Armenia during the period of the earliest inscriptional and literary attestations of Classical Armenian."
130,osc,Oscan,Oscan,,,,5,Matthew Scarborough,False,osca1245,9,2,0,0,False,False,,,,,,10,2,0,0,0,,Oscan,True,False,N,,,40.8600000000,15.6500000000,False,False,False,South Central Italy. Approximate centre of Oscan speaking areas prior to the historical spread of Latin.
131,peo,OldPersian,Old Persian,,,,5,Thomas Jügel,False,oldp1254,6,3,0,0,False,False,,,,,,61,7,0,0,0,,Old_Persian,True,False,N,,,31.4700000000,49.7100000000,False,False,False,"Site of Anshan in Elam, the original home city of the Achaemenids."
132,xum,Umbrian,Umbrian,,,,5,Matthew Scarborough,False,umbr1253,9,2,0,0,False,False,,,,,,20,2,0,0,0,,Umbrian,True,False,N,,,43.3500000000,12.5700000000,False,False,False,"Modern Gubbio, Italy. Find site of the Iguvine Tables which comprise the main bulk of the Umbrian corpus."
133,xlu,Luvian,Luvian,Composite list of Cuneiform Luvian (xlu) and Hieroglyphic Luvian (hlu). Cuneiform Luvian and Hieroglyphic Luvian data are indicated respectively as (CL) and (HL) in the Native Script data.,,,5,Matilde Serangeli,False,cune1239,1,0,0,0,False,False,,,,,"Composite of both well-documented forms:  predominantly Cuneiform, but also some Hieroglyphic Luvian data.of predominantly Cuneiform Luvian (xlu) and Hieroglyphic Luvian (hlu). ",20,6,0,0,0,,Luvian,True,False,N,,,38.4250000000,36.3200000000,False,False,False,"Set at a geographically intermediate point between the archaeological sites where the main archives of the Cuneiform and Hieroglyphic forms were found, i.e. respectively Ḫattuša (modern Boğazköy) and ancient Karkamış."
134,xlc,Lycian,Lycian,,,,5,Matilde Serangeli,False,lyci1241,1,0,0,0,False,False,,,,,,30,6,0,0,0,,Lycian,True,True,N,,,36.5600000000,29.8400000000,False,False,False,
135,plq,Palaic,Palaic,,,,5,Matilde Serangeli,False,pala1331,1,0,0,0,False,False,,,,,,40,6,0,0,0,,Palaic,True,True,N,,,40.0200000000,34.6200000000,False,False,False,
140,xtg,Gaulish,Gaulish,"Lexeme determinations are difficult because much of our knowledge of the Gaulish lexicon is through analysis of proper names, including personal names, theonyms, and toponyms. Lexeme determinations have been made in cases where it seems clear that a form did indeed have the relevant meaning synchronically in Gaulish, including cases where this is an inference from proper names. For extensive discussion of the difficulties in determining lexeme meanings in Gaulish, see the introduction to Delamarre's Gaulish lexicon. ",2300,1800,5,Britta Irslinger,False,tran1282,10,1,0,0,False,False,,,,,,20,4,3,0,0,,Gaulish,True,False,N,,,45.7000000000,3.1000000000,False,False,False,"Gergovia, stronghold of the Arverni"
141,bsh,KataVariEastern,Kâta-vari: Eastern,"Kâmkata-vari comprises two major dialects, Kâmviri and Kâta-vari, named after the ethnonyms of their speakers, the Kom and the Kâta.  Kâta-vari itself comprises two major dialects, Eastern Kâta-vari and Western Kâta-vari, of which the former is more conservative.  Kâmkata-vari has been misnamed ""Kati"" and ""Bashgali"" in older literature, without regard to the dialects.",,,5,Richard Strand,False,east2308,6,2,0,0,False,False,,,,,The Eastern Kâta-vari dialect of Kâmkata-vari. ,20,8,8,0,0,,Kata-viriEastern,False,False,_,,,35.6740000000,71.3440000000,False,False,False,"Location of the main community, Barg-i Matâl (Břagʹamâṭol)."
143,sqi,AlbanianStandard,Albanian: Standard,"Adjectives are cited with the accompanying (sort of) article: i for masculine and e for feminine. Nouns are cited in their indefinite forms. Due to a lack of infinitive, verbs are cited in the 1st person singular active indicative.",,,5,Michiel de Vaan,False,alba1267,5,0,0,0,False,True,,,,,,30,9,1,0,0,,Albanian_Standard,False,False,_,,,41.1110000000,20.0810000000,False,False,False,"Set on the city of Elbasan, whose historical variety is a transitional dialect that features both Gheg and Tosk elements and was used as a first standard language in the early 20th century.  This had an important impact on what was since further development into today's standard language, and although not completely identical with it, remains close to the modern standard."
144,mag,Magahi,Magahi,"Magahi is spoken mainly in Bihar and Jharkhand, along with some parts of West Bengal and Orissa. The data for this work was collected from the variety of Magahi spoken in and around the capital city of Patna, Jehanabad and Gaya.Although linguistically Magahi is different from Hindi (it does not even belong to same sub-family,as is clear from the Grierson's classification), the Indian government classifies Magahi as a dialect of Hindi. Despite this attitude, a large population (counting up to 13,978,565 according to the Census of India, 2001) residing in villages and small towns still speak and use the language astheir medium of communication and information-sharing (Alok et al 2011).",,,5,Ganesh Gupta,False,maga1260,6,1,0,0,False,False,,,,,,39,8,0,0,0,,Magahi,False,False,_,,,25.5900000000,85.1400000000,False,False,False,"Set on Patna, the capital of the Indian state of Bihar, the major town in which Magahi is spoken."
145,ovd,Elfdalian,Elfdalian,,,,5,Lars Steensland,False,elfd1234,8,2,1,0,False,False,,,,,,40,1,2,0,0,,Elfdalian,False,False,_,,,61.2300000000,14.0300000000,False,False,False,Set in the town of Älvdalen (Övdaln).
147,glv,GaelicManx,Gaelic: Manx,,,,5,Christopher Lewin,False,manx1243,10,3,0,0,False,False,,,,,,30,4,1,0,0,,Manx,True,False,N,,,54.2600000000,-4.6300000000,False,False,False,"Set at Tynwald Hill, traditional meeting place of the Manx parliamentary assembly"
148,obt,OldBreton,Old Breton,,1200,900,5,Britta Irslinger,False,oldb1248,10,2,3,0,False,False,,,,,,10,4,2,0,0,,Old_Breton,True,False,N,,,48.0000000000,-2.8000000000,False,False,False,Set at approximate midway point between Lomarec and Gomené inscriptions
150,owl,OldWelsh,Old Welsh,,1250,850,5,Alexander Falileyev,False,oldw1239,10,2,1,0,False,False,,,,,,40,4,2,0,0,,Old_Welsh,True,False,N,,,52.5900000000,-4.0900000000,False,False,False,"Tywyn, location of the Cadfan stone"
152,tsd,TsakonianPeloponnese,Tsakonian: Peloponnese,"Last living relic of Doric, spoken in the towns of Kastanitsa, Sitena, Prastos, Leonidi, Pramatefti, Sapounakeika, Tyros, and Melana, possibly also still in Korakovunio, on the east coast of the Peloponnese.",,,5,Nikos Liosis,False,tsak1248,3,2,0,0,False,False,,,,,,60,5,0,0,0,,Tsakonian_Peloponnese,False,False,_,,,37.1600000000,22.8500000000,False,False,False,"Set on the village of Leonidio (Λεωνίδιο), the de facto capital of the Tsakonian region."
157,swe,OldSwedish,Old Swedish,,,,5,Tonya Dewey,False,swed1254,8,2,1,0,False,False,,,,,,50,1,2,0,0,,Old_Swedish,True,False,N,,,57.7280000000,12.7000000000,False,False,False,"Set on the approximate midpoint of the province of Västergötland (West Gothland), since the main early texts for Old Swedish are the legal codes for this region, the Västgötalagen."
162,pli,Pali,Pali,,,,5,Martin Kümmel,False,pali1273,6,1,0,0,False,False,,http://dsalsrv02.uchicago.edu/cgi-bin/philologic/search3advanced?dbname=pali&searchdomain=headwords&matchtype=start&display=utf8&query=,,,,15,8,0,0,0,,Pali,True,False,N,,,23.1800000000,75.7800000000,False,False,False,"It is difficult to give an exact original location for Pāli, but the location as given is set to reflect the dominant Western MIA characteristics of Pāli. It is set here at Ujjain, historical capital of Avanti, realm associated with Pāli (Warder, A. K. Indian Buddhism. 2000). For further discussion cf. Norman, K. R. 2002. ""Pāli and the languages of early Buddhism"" In Indo-Iranian Languages and Peoples, ed. by N. Sims-Williams, 135-50. Oxford: Oxford University Press."
172,xbm,MiddleBreton,Middle Breton,,,,5,Britta Irslinger,False,midd1359,10,2,3,0,False,True,,,,,,15,4,2,0,0,,Middle_Breton,True,False,N,,,48.6900000000,-3.9800000000,False,False,False,"Set on Saint-Paul de Léon, the historical capital of the Léon region."
173,gmy,MycenaeanGreek,Greek: Mycenaean,Mycenaean Greek from Linear B sources.,,,5,Matthew Scarborough,False,myce1241,3,1,0,0,False,False,,,,,,10,5,0,0,0,,Mycenaean_Greek,True,False,N,,,37.7300000000,22.7500000000,False,False,False,"Archaeological Site of Mycenae. Other major archive centres were Knossos, Pylos, Tiryns, and Thebes."
174,kho,Khotanese,Khotanese,"Eastern Middle Iranian of Khotan, Southern Silk Road (now Hotan in China)Written in South Turkestan Brahmi script",,,5,Martin Kümmel,False,khot1251,6,3,0,0,False,False,,,,,,20,7,0,0,0,,Khotanese,True,False,N,,,37.0600000000,80.0100000000,False,False,False,"Set on Hotan, the capital of the Kingdom of Khotan, in which Khotanese was spoken."
175,csb,Kashubian,Kashubian,West Slavic minority language spoken in Poland. Central Kashubian as spoken in the western part of this dialect area in the vicinity of Serakòjce (Sierakowice),,,5,Lechosław Jocz,False,kash1274,7,2,2,0,False,False,,,,,"Central dialect, around Sierakowice",75,3,2,0,0,,Kashubian,False,False,_,,,54.3500000000,17.8900000000,False,False,False,"Set on the village of Sierakowice, the largest town in the Central-West Kashubian dialect area"
176,pox,Polabian,Polabian,Extinct West Slavic language documented in a few sources from the turn of the 17th to 18th centuries AD,,,5,Lechosław Jocz,False,pola1255,7,2,2,0,False,False,,,,,,78,3,2,0,0,,Polabian,True,False,N,,,52.9400000000,11.1300000000,False,False,False,"Set in Klennow (near Wustrow), the home village of the main informant for the richest available documentation of Polabian, by Christian Hennig von Jessen.  For details, see Polański & Sehnert (1967: 15)."
177,grc,NTGreek,Greek: New Testament,Strictly confined to the variety of Roman-period koiné Greek that is attested in the New Testament corpus.  Other varieties of Jewish koiné Greek (e.g. in the Septuagint translation of the Hebrew scriptures) are not included.,,,5,Matthew Scarborough,False,koin1234,3,1,0,0,False,False,,http://www.perseus.tufts.edu/hopper/text?doc=Perseus:text:1999.04.0057:entry=,,,,30,5,0,0,0,,NT_Greek,True,False,N,,,31.7700000000,35.2100000000,False,False,False,Site of Jerusalem in Roman Palestine.
178,xmn,MiddlePersian,Middle Persian,"Middle Persian as found in Manichaean texts from Central Asia, written in Manichaean script. In contrast to Zoroastrian ""Pahlavi"" writing reflects the actual phonology much better, and this variety also appears to be more strictly ""Persian"" (less loans from NW Iranian). Phonologization follows Durkin-Meisterernst and MacKenzie.",,,5,Martin Kümmel,False,pahl1241,6,3,0,0,False,False,,,,,,65,7,0,0,0,,Middle_Persian,True,False,N,,,29.9300000000,52.8900000000,False,False,False,Site of Persian capital Persepolis
179,xpr,Parthian,Parthian,"Middle Northwestern Iranian language, attested parallel to Middle Persian in Manichaean texts. A very restricted  corpus of older inscriptions from Iran also exist. Early Parthian (or related languages) were the main source for Middle Iranian loanwords in Armenian.Phonologization follows Durkin-Meisterernst 2004, except for <c>,<ž> and <j>, whereI have applied the findings of Korn 2010 (Bulletin of SOAS, 73/3, 415–436), i.e. <c>=<z> = /č/, <j> = /ž/ [ʒ ~ dʒ]",,,5,Martin Kümmel,False,part1239,6,3,0,0,False,False,,,,,,57,7,0,0,0,,Parthian,True,False,N,,,37.9500000000,58.2000000000,False,False,False,"Set on modern-day Nisa, Turkmenistan, an archaeological site of a fortress associated with Arsaces I (r. 247–217 BCE), the first king of Parthia and the founder of the Arsacid dynasty."
188,tsd,TsakonianPropontis,Tsakonian: Propontis,"Extinct variety of Tsakonian formerly spoken at a Tsakonian colony in the Propontis region of Asia Minor. Speakers of Propontic Tsakonian were relocated to various areas of Greece following the population exchanges of 1922, and later shifted to Standard Modern Greek.",,,5,Nikos Liosis,False,prop1240,3,2,0,0,False,False,,,,,,65,0,0,0,0,,Tsakonian_Propontis,True,False,N,,,40.1800000000,27.4200000000,False,False,False,"Location of a former Tsakonian colony in the Propontis region of Asia Minor. Cf. Tsakonian dialect map in Liosis, Nikos. 2016. ""Tsakonian Studies: The State-of-the-Art"" Μελέτες για την ελληνική γλώσσα [Studies in Greek Linguistics] 36 : 205-17."
189,nap,Neapolitan,Neapolitan,,,,5,Giovanni Abete,False,neap1235,9,1,1,0,False,False,,,,,,33,0,0,0,0,,Neapolitan,False,False,_,,,40.8500000000,14.2500000000,False,False,False,Set in Naples.
190,ltg,Latgalian,Latgalian,,,,5,Tijmen Pronk,False,east2282,7,1,1,0,False,False,,,,,,15,0,0,0,0,,Latgalian,False,False,_,,,56.5000000000,27.3300000000,False,False,False,The coordinates are those of the town of Rēzekne in the centre of Latgalia.
195,ell,GreekCypriot,Greek: Cypriot,,,,5,Christodoulou Charalambos,False,cypr1249,3,2,0,0,False,False,,,,,,49,0,0,0,0,,Greek_Cypriot,False,False,_,,,35.0000000000,33.0000000000,False,False,False,Approximate centre of the Greek Cypriot administered region of Cyprus.
201,ell,GreekItaliot,Greek: Italiot,Modern Italiot Greek. Note this list contains both Calabrian and Apulian forms.,,,5,Nikos Liosis,False,apul1236,3,2,0,0,False,False,,,,,,52,0,0,0,0,,Greek_Italiot,False,False,_,,,37.9400000000,15.8300000000,False,False,False,"Region of Calabria, one of two main locations along with Apulia where modern Italiot varieties of Hellenic are spoken in present day."
203,xno,AngloNorman,Anglo-Norman,,,,5,Heather Pagan,False,angl1258,9,1,1,0,False,False,,http://www.anglo-norman.net/D/,,,,61,0,0,0,0,,Anglo-Norman,True,False,N,,,51.5000000000,-0.1400000000,False,False,False,"Set in Westminster, traditional venue for the coronation of English monarchs since Norman times."
204,osp,OldSpanish,Old Spanish,,,,5,Stephen Dworkin,False,olds1249,9,1,1,0,False,False,,,,,,80,0,0,0,0,,Old_Spanish,True,False,N,,,39.8570000000,-4.0240000000,False,False,False,"Set on Toledo, since the IE-CoR data for Old Spanish are centred on texts from the royal chancellery of Alfonso el Sabio (reigned 1252-1284 CE) in Toledo. "
207,dlm,Dalmatian,Dalmatian,,,,5,Nikola Vuletić,False,dalm1243,9,1,1,0,False,False,,,,,Vegliote,29,0,0,0,0,,Dalmatian,True,False,N,,,45.0300000000,14.5800000000,False,False,False,"Set on the town of Krk, on the island of the same name, where the Vegliote variety was spoken"
208,yai,Yaghnobi,Yaghnobi,,,,1,L'ubomír Novák,False,yagn1238,6,3,0,0,False,False,,,,,,42,0,0,0,0,,Yaghnobi,False,True,_,,,39.1500000000,69.2400000000,False,False,False,
209,fro,OldFrench,Old French,,1158,650,5,Sabine Tittel,False,oldf1239,9,1,1,0,False,False,,,,,,60,0,0,0,0,,Old_French,True,False,N,,,48.8500000000,2.3500000000,False,False,False,"Set in Paris, cultural and political centre of the area in which Old French was spoken."
210,cpg,GreekCappodocian,Greek: Cappadocian,,,,5,Nikos Liosis,False,capp1239,3,2,0,0,False,False,,,,,,42,0,0,0,0,,Greek_Cappodocian,False,False,_,,,38.7300000000,35.4500000000,False,False,False,Area roughly corresponding to location of villages where present day Cappadocian Greek dialects are spoken.
211,pnt,GreekPontic,Greek: Pontic,,,,5,Nikos Liosis,False,pont1253,3,2,0,0,False,False,,,,,,44,0,0,0,0,,Greek_Pontic,False,False,_,,,40.8500000000,40.2600000000,False,False,False,"Geographical co-ordinates between Of and Çaykara in Trabazon province, the two regions with the largest numbers of Pontic Greek speakers in Anatolia."
212,prn,VasiVariPaski,Vâsi-vari: Paṣki,"Vâsi-vari is spoken in the six villages of the Pârûn Valley.  Each village has its own dialect.  Vâsi-vari has been called ""Prasun"" and ""Paruni"" in the literature, but these are not native names. ",,,5,Richard Strand,False,lowe1390,6,2,0,0,False,False,,,,,The dialect of Vâsi-vari spoken in Paṣki.,60,0,0,0,0,,Vasi-variPaski,False,False,_,,,35.3300000000,70.8930000000,False,False,False,"Location of the lowest community in the Pârûn Valley, Paṣki (Uṣʹüt)."
213,bsh,KataVariKtivi,Kâta-vari: Ktivi,"Kâmkata-vari comprises two major dialects, Kâmviri and Kâta-vari, named after the ethnonyms of their speakers, the Kom and the Kâta.  Kâta-vari itself comprises two major dialects, Eastern Kâta-vari and Western Kâta-vari.  Among other changes, Western Kâta-vari has lost vocalic nasalization, which is retained in the other dialects.  Kâmkata-vari has been misnamed ""Kati"" and ""Bashgali"" in older literature, without regard to the dialects.",,,5,Richard Strand,False,west2372,6,2,0,0,False,False,,,,,"The Western Kâta-vari dialect of Kâmkata-vari, as spoken in the Ktivi Valley of central Nûristân.",25,0,0,0,0,,Kata-variKtivi,False,False,_,,,35.3140000000,70.7430000000,False,False,False,"Location of the main community, Kântivâ (Ktʹivi)."
214,xvi,Kamviri,Kâmviri,"Kâmkata-vari comprises two major dialects, Kâmviri and Kâta-vari, named after the ethnonyms of their speakers, the Kom and the Kâta.  The Kom, at least, are most probably descendants of the ancient Kamboja people, known since the 6th century BCE.  Kâmkata-vari has been misnamed ""Kati"" and ""Bashgali"" in older literature, without regard to the dialects.",,,5,Richard Strand,False,kamv1242,6,2,0,0,False,False,,,,,The Kâmviri dialect of Kâmkata-vari.,10,0,0,0,0,,Kamviri,False,False,_,,,35.4110000000,71.3400000000,True,False,False,"Location of the main community, Kâmdesh (Kʹombřom)."
215,ask,SanuViriWama,Saṇu-viri: Wâmâ,"Âṣkuṇu-Saṇu-viri comprises the dialects of three ethnic groups that inhabit portions of upper Laghmân and across the watershed in the middle Pech Valley.  Saṇu-viri is the dialect of the Saṇu people, centered on the village of Wâmâ in the Pech.  Âṣkuṇu-Saṇu-viri has been called ""Ashkun"" in previous literature, after the Âṣkuṇu people of upper Laghmân.",,,5,Richard Strand,False,suru1257,6,2,0,0,False,False,,,,,"Saṇu-viri, the dialect of Âṣkuṇu-Saṇu-viri spoken in Wâmâ.",50,0,0,0,0,,Sanu-viriWama,False,False,_,,,35.1240000000,70.7510000000,False,False,False,"Location of the main community, Wâmâ (Sâma)."
216,wbk,KalasaAlaNiseigram,Kalaṣa-alâ: Nišeigrâm,"Kalaṣa-alâ consists of two major dialect groups, one comprising four villages of the upper Wâigal Valley plus four villages in adjacent valleys, the other including five villages in the lower valley.  Each village has its own sub-dialect.  The dialect of Nišeigrâm is the major one of the lower dialect group.  Kalaṣa-alâ has been called ""Waigali"" after the name of its home valley, but properly that name should denote only the dialect of the major village of the upper valley,Vâigal.",,,5,Richard Strand,False,chim1297,6,2,0,0,False,False,,,,,"Nišei-alâ, the dialect of Kalaṣa-alâ spoken in Nišeigrâm.",30,0,0,0,0,,Kalasa-alaNiseigram,False,False,_,,,35.0930000000,70.8480000000,False,False,False,"Location of the main community, Niše'i (Nišeigrâm)."
217,trm,TregamiGambir,Tregâmî: Gambir,,,,3,Richard Strand,False,treg1243,6,2,0,0,False,False,,,,,,40,0,0,0,0,,TregamiGambir,False,True,_,,,,,False,False,False,
219,phl,Palula,Palula,The best described variety and the ’standard for ongoing orthography development. ,,,5,Henrik Liljegren,False,palu1254,6,1,0,0,False,False,,,,,"Southern Palula (Ashreti), one of two main dialects",80,0,0,0,0,,Palula,False,False,_,,,35.4340000000,71.7510000000,False,False,False,"Set on Ashret (Chitral district), the largest Palula settlement and home of the main language consultant for these IE-CoR data."
220,frp,FrancoProvencal,Franco-Provençal,"Franco-Provençal (‘Arpitan’) refers to the Alpine varieties of Romance spoken in parts of Switzerland (Suisse Romande), Italy (Val d’Aosta) and France (Savoy).  Not to be confused with Provençal, spoken in the Provence region of south-eastern France.  ",,,5,Jérémie Delorme,False,fran1269,9,1,1,0,False,False,,,,,,70,0,0,0,0,,,False,False,_,,,45.9200000000,7.0500000000,False,False,False,"Set at the meeting point of the borders of Switzerland (Suisse Romande), Italy (Val d'Aosta) and France (Savoy), the regions of all three countries where Franco-Provençal is spoken. "
222,bho,Bhojpuri,Bhojpuri,Gorakhpuri,,,5,Ganesh Gupta,False,bhoj1244,6,1,0,0,False,False,,,,,,43,0,0,0,0,,,False,False,_,,,26.7600000000,83.3700000000,False,False,False,"Set on Gorakhpur, the town where the IE-CoR Bhojpuri data were elicited, and the centre of the Gorakhpuri dialect, one of the main dialects of Bhojpuri"
228,san,VedicLate,Vedic: Late,,,,5,Roland Pooth,False,sans1269,6,1,0,0,False,True,,http://www.sanskrit-lexicon.uni-koeln.de/scans/MWScan/2014/web/webtc/servepdf.php?page=,,,,6,0,0,0,0,,,True,True,N,,,30.0000000000,75.0000000000,False,False,False,
229,bre,BretonTreger,Breton: Treger,,,,5,Steve Hewitt,False,treg1244,10,2,3,0,False,False,,,,,Treger dialect,22,0,0,0,0,,,False,False,_,,,48.7900000000,-3.2300000000,False,False,False,"Set on Tréguier, capital of the historical region of Treger."
230,cor,LateCornish,Late Cornish,,400,200,5,Nicholas Williams,False,oldc1252,10,2,2,0,False,False,,,,,,37,0,0,0,0,,,True,False,N,,,50.0800000000,-5.5400000000,False,False,False,"Set on Mousehole (Porthenys), the most probable location of the last native speakers of Cornish."
231,cnx,MiddleCornish,Middle Cornish,,1000,400,5,Nicholas Williams,False,oldc1252,10,2,2,0,False,False,,,,,,36,0,0,0,0,,,True,False,N,,,50.1700000000,-5.1000000000,False,False,False,"Set on Glasney College in Penryn, where many of the core surviving texts in Middle Cornish, particularly ‘Miracle plays’, were composed."
234,bre,BretonGwened,Breton: Gwened,,,,5,Loïc Cheveau,False,vann1244,10,2,3,0,False,False,,,,,Gwened (Vannetais) dialect,21,0,0,0,0,,,False,False,_,,,47.6600000000,-2.7600000000,False,False,False,"Set on Vannes, historical capital of Gwened"
236,cym,WelshNorth,Welsh: North,,,,5,Guto Rhys,False,nort2668,10,2,1,0,False,False,,,,,North Wales,51,0,0,0,0,,,False,False,_,,,53.0900000000,-3.8000000000,True,False,False,Approximate mid-point of the northern dialect area of Welsh.
238,pol,OldPolish,Old Polish,Old Polish as documented in the dictionary Słownik Staropolski (1953-2002),,,5,Lechosław Jocz,False,poli1260,7,2,2,0,False,False,,,,,,70,0,0,0,0,,,True,False,N,,,52.5400000000,17.6100000000,False,False,False,"Set on Gniezno, as the oldest capital of Poland"
239,wlm,MiddleWelsh,Middle Welsh,,850,550,5,Alexander Falileyev,False,,10,2,1,0,False,False,,,,,,45,0,0,0,0,,,True,False,N,,,52.2000000000,-3.6000000000,False,False,False,Approximate midway point between provenance of White Book of Rhydderch and Red Book of Hergest
242,zum,Kumzari,Kumzari,,,,5,Erik Anonby,False,kumz1235,6,3,0,0,False,False,,,,,,80,0,0,0,0,,,False,False,_,,,26.3400000000,56.4100000000,False,False,False,"These are the coordinates for the town of Kumzar, the historical, political and cultural centre of the language."
243,ces,OldCzech,Old Czech,Old Czech as documented in dictionaries and corpora published at http://vokabular.ujc.cas.cz,,,5,Lechosław Jocz,False,czec1258,7,2,2,0,False,False,,,,,,84,0,0,0,0,,,True,False,N,,,50.0900000000,14.4200000000,False,False,False,"Set on Prague, as the capital of historical Bohemia"
245,orv,OldNovgorod,Old Novgorod,"Historical Slavic variety from northern Russia, markedly divergent from Old Russian proper, showing some features that are entirely absent in all other historical and modern Slavic varieties",,,5,Lechosław Jocz,False,oldr1238,7,2,3,0,False,False,,,,,,48,0,0,0,0,,,True,False,N,,,58.5500000000,31.2700000000,False,False,False,Set on Velikij Novgorod
249,rue,Rusyn,Rusyn,"East Slavic minority language spoken in the Carpathians and surrounding regions, showing (depending on the particular dialect) admixtures of West and South Slavic features. Rusyn as spoken in Toruń (Transcarpathian Ukraine) and documented by Nikolaev & Tolstaâ (2001)",,,5,Lechosław Jocz,False,rusy1239,7,2,3,0,False,False,,,,,Toruń dialect (Transcarpathian Ukraine),63,0,0,0,0,,,False,False,_,,,48.6700000000,23.6000000000,False,False,False,Set on the village of Toruń in the Transcarpathia (Zakarpattia) province of Ukraine
250,kjv,MiddleSerboCroatKajkavian,Middle Serbo-Croat: Kajkavian,,,,5,Lechosław Jocz,False,kajk1237,7,2,1,0,False,False,,,,,Kajkavian,36,0,0,0,0,,,True,True,N,,,45.6500000000,16.1300000000,False,False,False,
251,hbs,MiddleSerboCroatChakavian,Middle Serbo-Croat: Čakavian,,,,5,Lechosław Jocz,False,chak1265,7,2,1,0,False,False,,,,,Čakavian,34,0,0,0,0,,,True,True,N,,,45.1100000000,14.0000000000,False,False,False,
252,hbs,MiddleSerboCroatShtokavian,Middle Serbo-Croat: Štokavian,,,,5,Lechosław Jocz,False,shto1241,7,2,1,0,False,False,,,,,Štokavian,32,0,0,0,0,,,True,True,N,,,43.8600000000,18.4100000000,False,False,False,
253,mkd,MacedonianVisoka,Macedonian: Visoka,"The Visoka dialect of Macedonian, as described by Małecki (1936)",,,5,Lechosław Jocz,False,mace1250,7,2,1,0,False,False,,,,,Visoka,27,0,0,0,0,,,False,False,_,,,40.8300000000,23.2000000000,False,False,False,Set on the village of Visoka/Osa in the Thessaloniki region of Greece.
254,mkd,MacedonianSuho,Macedonian: Suho,"The Suho dialect of Macedonian, as described by Małecki (1936)",,,5,Lechosław Jocz,False,mace1250,7,2,1,0,False,False,,,,,Suho,26,0,0,0,0,,,False,False,_,,,40.8200000000,23.3700000000,False,False,False,Set on the village of Suho/Sochos in the Thessaloniki region of Greece.
257,bqi,Bakhtiari,Bakhtiari,,,,5,Mortaza Taheri-Ardali and Erik Anonby,False,bakh1245,6,3,0,0,False,False,,,,,,73,0,0,0,0,,,False,False,_,,,32.0200000000,50.6600000000,False,False,False,"These are the coordinates for the town of Ardal, where the language data were collected."
259,slv,SloveneHistorical,Slovenian: Early Modern,Based on the dictionary of Kastelec & Vorenc from 1680-1710 (Stabej 1997),,,5,Lechosław Jocz,False,slov1268,7,2,1,0,False,False,,,,,,38,0,0,0,0,,,True,False,N,,,46.0600000000,14.5100000000,False,False,False,"Set on Ljubljana, as the capital of Slovenia"
260,slv,SloveneKostel,Slovenian: Kostel,Kostel dialect (belonging to the Lower Carniolan dialect group) as documented in the dictionary by Gregorič (2015),,,5,Lechosław Jocz,False,lowe1384,7,2,1,0,False,False,,http://www.fran.si/197/joze-gregoric-kostelski-slovar/,,,Kostel dialect,42,0,0,0,0,,,False,False,_,,,45.5100000000,14.9100000000,False,False,False,"Set on the settlement of Kostel, the historical centre of the Lower Carniola region"
261,osx,OldSaxonLegacy,Old_Saxon_Legacy,,,,5,Tonya Dewey,False,olds1250,8,2,2,0,False,False,,,,,,11,0,0,0,0,,,True,True,N,,,51.3900000000,7.0000000000,False,False,False,
263,gsw,GermanBernese,German: Bernese,,,,5,Manuel Widmer,False,swis1247,8,2,2,0,False,False,,,,,,33,0,0,0,0,,,False,False,_,,,46.9500000000,7.4200000000,False,False,False,Set on Bern.
265,mzn,Mazanderani,Mazanderani,,,,5,Shirin Adibifar and Raheleh Izadifar,False,maza1291,6,3,0,0,False,False,,,,,,72,0,0,0,0,,,False,False,_,,,36.5700000000,53.0600000000,False,False,False,"Sari, Iran, main urban centre in which this variety is spoken"
266,pan,Punjabi,Punjabi,"Punjabi:  one of the major languages of Pakistan, as well as one of the 22 recognized languages of India, and an official language of the Indian state of Punjab.",,,5,Liudmila Khokhlova,False,panj1256,6,1,0,0,False,False,,,,,Indian Punjabi,66,0,0,0,0,,,False,False,_,,,31.6330000000,74.8720000000,False,False,False,"Set on Amritsar, state of Punjab, India"
271,sog,Sogdian,Sogdian,,,,5,Nicholas Sims-Williams,False,sogd1245,6,3,0,0,False,False,,,,,,17,0,0,0,0,,,True,False,N,,,39.7000000000,66.9800000000,False,False,False,"Set on Samarkand, one of the principal cities of ancient Sogdiana."
272,asm,Assamese,Assamese,,,,2,Patrycja Markus,False,assa1263,6,1,0,0,False,False,,,,,,25,0,0,0,0,,,False,True,_,,,26.2300000000,92.5200000000,False,False,False,"Set at Raha, Nagaon province, provenance of the informant from whom the data were elicited"
273,ckb,KurdishJafi,Kurdish C.: Jafi,,,,5,"Masoud Mohammadirad, Raheleh Izadifar, and Geoffrey Haig",False,cent1972,6,3,0,0,False,False,,,,,Jafi dialect of Javanrud,83,0,0,0,0,,,False,False,_,,,34.8000000000,46.5000000000,False,False,False,"Set at Javanrud, Kermanshah province, Iran, provenance of the speaker from whom the data was elicited"
274,bgn,BalochiSistani,Balochi: Sistani,,,,5,Maryam Nourzaei and Shirin Adibifar,False,west2368,6,3,0,0,False,False,,,,,Sistani Balochi,79,0,0,0,0,,,False,False,_,,,29.4500000000,60.8800000000,False,False,False,"Zahedan, Iran, main urban centre in which this variety is spoken"
277,tks,Tati,Tati,,,,5,Raheleh Izadifar,False,take1255,6,3,0,0,False,False,,,,,,69,0,0,0,0,,,False,False,_,,,36.0700000000,49.7000000000,False,False,False,"Set on Takestan, Qazvin, Iran, the main urban centre where this variety is spoken."
278,xbc,Bactrian,Bactrian,,,,5,Nicholas Sims-Williams,False,bact1239,6,3,0,0,False,False,,,,,,55,0,0,0,0,,,True,False,N,,,36.7500000000,66.9000000000,False,False,False,"Set on Balkh, ancient capital of Bactria."
279,lrl,Lari,Lari,,,,5,Muhammed Ourang and Erik Anonby,False,lari1253,6,3,0,0,False,False,,,,,,77,0,0,0,0,,,False,False,_,,,27.2100000000,53.6600000000,False,False,False,"Set on the town of Ahel, where the IE-CoR data were collected."
280,fay,Delvari,Delvari,,,,5,Fatemeh Nemati,False,sout2645,6,3,0,0,False,False,,,,,,75,0,0,0,0,,,False,False,_,,,28.7500000000,51.0700000000,False,False,False,"Set on Delvar township, Bušehr province, Iran, main urban centre where this variety is spoken."
281,ruq,MeglenoRomanian,Megleno-Romanian,,,,5,Petar Atanasov,False,megl1237,9,1,1,0,False,False,,,,,,25,0,0,0,0,,,False,False,_,,,41.1200000000,22.3800000000,False,False,False,Set to a geographically central location within the area in which Megleno-Romanian is spoken
282,hac,Hawrami,Hawrami,,,,5,Parvin Mahmoudveysi,False,hawr1243,6,3,0,0,False,False,,,,,,85,0,0,0,0,,,False,False,_,,,35.0400000000,46.3600000000,False,False,False,"Set at Parveh, Iran, main urban centre in which this variety is spoken"
283,pro,OldOccitan,Old Occitan,,,,5,Lisa Bevevino,False,oldp1253,9,1,1,0,False,False,,,,,,68,0,0,0,0,,,True,True,N,,,44.1400000000,6.8300000000,False,False,False,
284,khw,Khowar,Khowar,"There is in fact only very slight dialect variation considering how widespread the language is, but due to only recent expansion.",,,5,Asfar Ali Khan and Henrik Liljegren,False,khow1242,6,1,0,,False,False,,,,,Khowar of Mastuj,86,0,0,0,0,,,False,False,_,,,36.2800000000,72.5150000000,False,False,False,"Set on Mastuj (Chitral district), one of the oldest centres of the language and home of the main language consultant for these IE-CoR data."
285,sdh,KurdishElami,Kurdish S: Elami,,,,5,Mojtaba Gheitasi and Erik Anonby,False,sout2640,6,3,0,0,False,False,,,,,Elami,84,0,0,0,0,,,False,False,_,,,33.6400000000,46.4300000000,False,False,False,"These are the coordinates for Ilam, the town where the language data were collected."
286,aae,AlbanianArberesh,Albanian: Arbëresh,,,,5,Borana Lushaj,False,arbe1236,5,0,0,0,False,False,,,,,,40,0,0,0,0,,,False,False,_,,,38.8820000000,16.4880000000,False,False,False,"Set on the village of Caraffa di Catanzaro in Calabira, toe 'toe' of Italy, the variety targeted here."
287,xco,Khwarazmian,Khwarazmian,,,,5,Adam Benkato,False,khwa1238,6,3,0,0,False,False,,,,,,16,0,0,0,0,,,True,False,N,,,42.3000000000,59.1500000000,False,False,False,"Set in the area formerly of the lower reaches of the river Amu Darya (Oxus) south of the Aral Sea, ancient Khwarazmia."
288,gwt,Gawarbati,Gawarbati,"This is not a true dialect division, more a recent divergence effect from the international border (Pakistan/Afghanistan) cutting through the region where the language is spoken.",,,5,Henrik Liljegren,False,gawa1247,6,1,0,0,False,False,,,,,Pakistani Gawarbati,84,0,0,0,0,,,False,False,_,,,35.3110000000,71.5500000000,False,False,False,"Set on Arandu (Chitral district), the main Gawarbati town on the Pakistani side of the border and home of the main language consultant for these IE-CoR data."
289,cat,OldCatalan,Old Catalan,,,,5,Maria-Reina Bastardas,False,,9,1,1,0,False,False,,,,,,72,0,0,0,0,,,True,False,N,,,41.3800000000,1.0800000000,False,False,False,"Set on the monastery of Poblet, where the abbot commissioned the Catalan version of the Llibre dels Fets, the primary source material for the IE-CoR entries for Old Catalan."
290,gwc,Gawri,Gawri,The best described variety and the ’standard for ongoing orthography development. ,,,3,Muhammad Zaman Sagar and Henrik Liljegren,False,kala1373,6,1,0,0,False,False,,,,,"Kalam Kohistani, representing one of two main varieties (of Swat and Dir, respectively)",82,0,0,0,0,,,False,True,_,,,35.4780000000,72.5890000000,False,False,False,"Set on Kalam (Swat district), the main Gawri town and home of the main language consultant for these IE-CoR data."
291,,RajiBarzoki,Raji: Barzoki,,,,5,Mahnaz Talebi and Erik Anonby,False,cent2264,6,3,0,0,False,False,,,,,,74,0,0,0,0,,,False,False,_,,,33.7900000000,51.2200000000,False,False,False,"These are the coordinates for the town of Barzok, where the language data were collected."
292,pbu,Pashto,Pashto,,,,5,Muhammad Kamal Khan,False,yusu1238,6,3,0,0,False,False,,,,,Yusufzai,27,0,0,0,0,,,False,False,_,,,34.1200000000,72.4600000000,False,False,False,"Provenance of primary coder near Swabi in Khyber Pakhtunkhwa province, Pakistan."
293,glh,PashaiNorthWest,Pashai: North-West,"Pashai forms a large and messy dialect continuum, and any dialect/language division is prone to oversimplification. The present division of Pashai into north-west, south-west, north-east and south-east  is based on Morgenstierne (1967), but there are numerous sub-divisions that complicate the picture.",,,2,Henrik Liljegren,False,nort2665,6,1,0,0,False,False,,,,,North-western Pashai as spoken in Dawlat Shah,88,0,0,0,0,,,False,True,_,,,34.9600000000,70.0550000000,False,False,False,"Set on Dawlat Shah (Laghman province), the home of the main language consultant for these IE-CoR data."
295,goh,OldHighGerman,Old High German,,,,5,Matthew Boutilier,False,oldh1241,8,2,2,0,False,True,,,,,"East Franconian, the dialect of the Old High German Tatian text.",15,0,0,0,0,,,True,False,N,,,50.5540000000,9.6720000000,False,False,False,"Set on the monastery of Fulda, where the major reference text in Old High German, the translation of Tatian, is widely assumed to have been produced."
296,srh,Sarikoli,Sarikoli,,,,5,Deborah Kim and Timothy Palmer,False,sari1246,6,3,0,0,False,False,,,,,,30,0,0,0,0,,,False,False,_,,,37.7700000000,75.2300000000,False,False,False,"Location of the county seat of the Tashkorgan Tajik Autonomous County, main urban centre where Sarikoli is spoken."
297,osx,OldSaxon,Old Saxon,,,,5,Matthew Boutilier,False,olds1250,8,2,2,0,False,False,,,,,The text of the epic poem Hêliand.,10,0,0,0,0,,,True,False,N,,,53.0760000000,8.8100000000,False,False,False,"Set on Bremen, an important early city central within the region where Old Saxon was spoken."
298,ang,OldEnglish,Old English,,,,5,Matthew Boutilier,False,olde1238,8,2,2,1,False,False,,,,,West Saxon dialect of Old English,60,0,0,0,0,,,True,False,N,,,51.0600000000,-1.3300000000,False,False,False,"Set on Winchester, as the reference point for the best documented dialect of Old English, sometimes even referred to as the ""Winchester standard""."
299,gmh,MiddleHighGerman,Middle High German,,,,5,Matthew Boutilier,False,midd1343,8,2,2,0,False,False,,,,,‘Dichtersprache’,17,0,0,0,0,,,True,False,N,,,48.7830000000,9.1830000000,False,False,False,"Set on Stuttgart, a major city in the Swabian-speaking area, given that the ‘standardised’ written form of Middle High German (the ‘Dichtersprache’) was generalised from the spoken language of Swabian area."
300,dum,MiddleDutch,Middle Dutch,,,,5,Matthew Boutilier,False,midd1321,8,2,2,0,False,False,,,,,Brabant dialect.,38,0,0,0,0,,,True,False,N,,,51.4330000000,5.4830000000,False,False,False,"Set on Eindhoven, the capital of modern Noord-Brabant and close to the centre of historical Brabant, a central dialect area and the most influential dialect in the Middle Dutch period."
301,ofs,OldFrisian,Old Frisian,,,,5,Matthew Boutilier,False,oldf1241,8,2,2,0,False,False,,,,,,50,0,0,0,0,,,True,True,N,,,53.1300000000,6.0000000000,False,False,False,
302,non,OldIcelandic,Old Icelandic,,,,5,Matthew Boutilier,False,oldn1244,8,2,1,0,False,False,,,,,,15,0,0,0,0,,,True,False,N,,,64.2600000000,-21.1200000000,False,False,False,"Set at Þingvellir. the venue of the Alþingi, Iceland's historical parliament."
303,got,Gothic,Gothic,,,,5,Matthew Boutilier,False,goth1244,8,1,0,0,False,False,,,,,The text of the Gothic Bible as translated by Wulfila.,0,0,0,0,0,,,True,False,N,,,43.2200000000,25.6100000000,False,False,False,"Nicopolis ad Istrum. Although original to northern Europe, by the date at which Gothic language was first written down, in the form of Wulfila's translation of the Bible into Gothic, Wulfila and his Gothic-speaking followers were settled in the Roman province of Moesia, around Nicopolis ad Istrum (near Veliko Tarnovo in north-central Bulgaria) "
304,nno,NorwegianNynorsk,Norwegian: Nynorsk,,,,3,Unn Røyneland,False,norw1262,8,2,1,0,False,False,,,,,,32,0,0,0,0,,,False,True,_,,,61.1800000000,6.5900000000,False,False,False,
305,por,BrazilianPortuguese,Brazilian Portuguese,,,,4,Tiago Tresoldi,False,braz1246,9,1,1,0,False,False,,,,,,96,0,0,0,0,,,False,True,_,,,-22.9500000000,-43.2100000000,False,False,False,
